[{"OBJECT_NAME":"ATLAS 5 CENTAUR DEB","OBJECT_ID":"2014-055DE","EPOCH":"2026-02-24T13:53:35.301984","MEAN_MOTION":1.79155303,"ECCENTRICITY":0.48862881,"INCLINATION":19.2659,"RA_OF_ASC_NODE":177.197,"ARG_OF_PERICENTER":106.0275,"MEAN_ANOMALY":311.3048,"EPHEMERIS_TYPE":0,"CLASSIFICATION_TYPE":"U","NORAD_CAT_ID":47096,"ELEMENT_SET_NO":999,"REV_AT_EPOCH":3510,"BSTAR":0,"MEAN_MOTION_DOT":-1.6e-7,"MEAN_MOTION_DDOT":0},{"OBJECT_NAME":"LUCAS (JDRS-1)","OBJECT_ID":"2020-089A","EPOCH":"2026-03-06T02:24:34.100352","MEAN_MOTION":1.00272952,"ECCENTRICITY":0.00027769,"INCLINATION":0.0572,"RA_OF_ASC_NODE":275.2521,"ARG_OF_PERICENTER":67.9962,"MEAN_ANOMALY":307.4849,"EPHEMERIS_TYPE":0,"CLASSIFICATION_TYPE":"U","NORAD_CAT_ID":47202,"ELEMENT_SET_NO":999,"REV_AT_EPOCH":1938,"BSTAR":0,"MEAN_MOTION_DOT":-2.41e-6,"MEAN_MOTION_DDOT":0},{"OBJECT_NAME":"SXM-7","OBJECT_ID":"2020-096A","EPOCH":"2026-03-05T13:35:36.496032","MEAN_MOTION":1.0027333,"ECCENTRICITY":0.0004544,"INCLINATION":0.0216,"RA_OF_ASC_NODE":119.6102,"ARG_OF_PERICENTER":6.988,"MEAN_ANOMALY":155.4133,"EPHEMERIS_TYPE":0,"CLASSIFICATION_TYPE":"U","NORAD_CAT_ID":47240,"ELEMENT_SET_NO":999,"REV_AT_EPOCH":640,"BSTAR":0,"MEAN_MOTION_DOT":-2.13e-6,"MEAN_MOTION_DDOT":0},{"OBJECT_NAME":"BREEZE-M DEB [TANK]","OBJECT_ID":"2020-097B","EPOCH":"2026-03-04T08:30:20.913408","MEAN_MOTION":2.20436102,"ECCENTRICITY":0.73030123,"INCLINATION":58.2684,"RA_OF_ASC_NODE":129.9297,"ARG_OF_PERICENTER":103.533,"MEAN_ANOMALY":340.3309,"EPHEMERIS_TYPE":0,"CLASSIFICATION_TYPE":"U","NORAD_CAT_ID":47243,"ELEMENT_SET_NO":999,"REV_AT_EPOCH":4189,"BSTAR":0.0012896534,"MEAN_MOTION_DOT":1.045e-5,"MEAN_MOTION_DDOT":0},{"OBJECT_NAME":"CMS-01","OBJECT_ID":"2020-099A","EPOCH":"2026-03-06T02:22:19.314624","MEAN_MOTION":1.0027224,"ECCENTRICITY":0.00062519,"INCLINATION":0.0222,"RA_OF_ASC_NODE":125.8071,"ARG_OF_PERICENTER":164.3363,"MEAN_ANOMALY":352.2477,"EPHEMERIS_TYPE":0,"CLASSIFICATION_TYPE":"U","NORAD_CAT_ID":47256,"ELEMENT_SET_NO":999,"REV_AT_EPOCH":1916,"BSTAR":0,"MEAN_MOTION_DOT":-1.7e-6,"MEAN_MOTION_DDOT":0},{"OBJECT_NAME":"TURKSAT 5A","OBJECT_ID":"2021-001A","EPOCH":"2026-03-05T20:59:22.790112","MEAN_MOTION":1.00272404,"ECCENTRICITY":5.2e-6,"INCLINATION":0.0201,"RA_OF_ASC_NODE":104.1543,"ARG_OF_PERICENTER":333.4625,"MEAN_ANOMALY":71.7403,"EPHEMERIS_TYPE":0,"CLASSIFICATION_TYPE":"U","NORAD_CAT_ID":47306,"ELEMENT_SET_NO":999,"REV_AT_EPOCH":1893,"BSTAR":0,"MEAN_MOTION_DOT":1.48e-6,"MEAN_MOTION_DDOT":0},{"OBJECT_NAME":"FALCON 9 R/B","OBJECT_ID":"2021-001B","EPOCH":"2026-03-05T09:49:49.141920","MEAN_MOTION":1.65129047,"ECCENTRICITY":0.7775444,"INCLINATION":15.9423,"RA_OF_ASC_NODE":216.5762,"ARG_OF_PERICENTER":339.5883,"MEAN_ANOMALY":1.3127,"EPHEMERIS_TYPE":0,"CLASSIFICATION_TYPE":"U","NORAD_CAT_ID":47307,"ELEMENT_SET_NO":999,"REV_AT_EPOCH":2844,"BSTAR":0.0013055494,"MEAN_MOTION_DOT":3.14e-6,"MEAN_MOTION_DDOT":0},{"OBJECT_NAME":"TIANTONG-1 3","OBJECT_ID":"2021-003A","EPOCH":"2026-03-06T02:28:38.663328","MEAN_MOTION":1.00274276,"ECCENTRICITY":0.00034269,"INCLINATION":1.8504,"RA_OF_ASC_NODE":333.2079,"ARG_OF_PERICENTER":7.5231,"MEAN_ANOMALY":301.724,"EPHEMERIS_TYPE":0,"CLASSIFICATION_TYPE":"U","NORAD_CAT_ID":47321,"ELEMENT_SET_NO":999,"REV_AT_EPOCH":1892,"BSTAR":0,"MEAN_MOTION_DOT":-1.6e-6,"MEAN_MOTION_DDOT":0},{"OBJECT_NAME":"TJS-6","OBJECT_ID":"2021-010A","EPOCH":"2026-03-06T06:31:38.728992","MEAN_MOTION":1.00271427,"ECCENTRICITY":0.00033989,"INCLINATION":0.3348,"RA_OF_ASC_NODE":90.7844,"ARG_OF_PERICENTER":286.4507,"MEAN_ANOMALY":63.1425,"EPHEMERIS_TYPE":0,"CLASSIFICATION_TYPE":"U","NORAD_CAT_ID":47613,"ELEMENT_SET_NO":999,"REV_AT_EPOCH":1877,"BSTAR":0,"MEAN_MOTION_DOT":3.8e-7,"MEAN_MOTION_DDOT":0},{"OBJECT_NAME":"ARKTIKA-M 1","OBJECT_ID":"2021-016A","EPOCH":"2026-03-02T19:44:56.440608","MEAN_MOTION":2.00620868,"ECCENTRICITY":0.72428147,"INCLINATION":63.2036,"RA_OF_ASC_NODE":72.8571,"ARG_OF_PERICENTER":269.4536,"MEAN_ANOMALY":15.2019,"EPHEMERIS_TYPE":0,"CLASSIFICATION_TYPE":"U","NORAD_CAT_ID":47719,"ELEMENT_SET_NO":999,"REV_AT_EPOCH":3665,"BSTAR":0,"MEAN_MOTION_DOT":-1.08e-6,"MEAN_MOTION_DDOT":0},{"OBJECT_NAME":"FREGAT R/B","OBJECT_ID":"2021-016B","EPOCH":"2026-03-01T21:49:45.493248","MEAN_MOTION":1.98956105,"ECCENTRICITY":0.73646663,"INCLINATION":63.2285,"RA_OF_ASC_NODE":65.8235,"ARG_OF_PERICENTER":267.1765,"MEAN_ANOMALY":14.9941,"EPHEMERIS_TYPE":0,"CLASSIFICATION_TYPE":"U","NORAD_CAT_ID":47720,"ELEMENT_SET_NO":999,"REV_AT_EPOCH":3630,"BSTAR":0,"MEAN_MOTION_DOT":-1.502e-5,"MEAN_MOTION_DDOT":0},{"OBJECT_NAME":"SHIYAN-9 (SY-9)","OBJECT_ID":"2021-019A","EPOCH":"2026-02-13T08:49:37.634880","MEAN_MOTION":1.00262375,"ECCENTRICITY":0.0016854,"INCLINATION":16.7978,"RA_OF_ASC_NODE":304.0404,"ARG_OF_PERICENTER":23.4452,"MEAN_ANOMALY":94.4865,"EPHEMERIS_TYPE":0,"CLASSIFICATION_TYPE":"U","NORAD_CAT_ID":47851,"ELEMENT_SET_NO":999,"REV_AT_EPOCH":2289,"BSTAR":0,"MEAN_MOTION_DOT":-2.21e-6,"MEAN_MOTION_DDOT":0},{"OBJECT_NAME":"SL-6 DEB","OBJECT_ID":"1980-063E","EPOCH":"2026-02-27T04:54:04.061088","MEAN_MOTION":2.11466866,"ECCENTRICITY":0.71226438,"INCLINATION":63.9001,"RA_OF_ASC_NODE":0.2858,"ARG_OF_PERICENTER":284.4845,"MEAN_ANOMALY":11.8012,"EPHEMERIS_TYPE":0,"CLASSIFICATION_TYPE":"U","NORAD_CAT_ID":48261,"ELEMENT_SET_NO":999,"REV_AT_EPOCH":9468,"BSTAR":0.0015340945,"MEAN_MOTION_DOT":1.59e-6,"MEAN_MOTION_DDOT":0},{"OBJECT_NAME":"SL-6 DEB","OBJECT_ID":"1980-063F","EPOCH":"2026-03-05T20:31:25.023936","MEAN_MOTION":2.05121657,"ECCENTRICITY":0.72214918,"INCLINATION":63.5964,"RA_OF_ASC_NODE":17.7172,"ARG_OF_PERICENTER":280.871,"MEAN_ANOMALY":350.3619,"EPHEMERIS_TYPE":0,"CLASSIFICATION_TYPE":"U","NORAD_CAT_ID":48262,"ELEMENT_SET_NO":999,"REV_AT_EPOCH":9204,"BSTAR":0.0026647761,"MEAN_MOTION_DOT":-1.25e-5,"MEAN_MOTION_DDOT":0},{"OBJECT_NAME":"COSMOS 1367 DEB","OBJECT_ID":"1982-045E","EPOCH":"2026-03-05T20:47:04.915104","MEAN_MOTION":2.06307055,"ECCENTRICITY":0.72059786,"INCLINATION":64.1215,"RA_OF_ASC_NODE":65.169,"ARG_OF_PERICENTER":13.4108,"MEAN_ANOMALY":358.4082,"EPHEMERIS_TYPE":0,"CLASSIFICATION_TYPE":"U","NORAD_CAT_ID":48266,"ELEMENT_SET_NO":999,"REV_AT_EPOCH":4549,"BSTAR":0.014040081,"MEAN_MOTION_DOT":2.29e-6,"MEAN_MOTION_DDOT":0},{"OBJECT_NAME":"ARIANE 3 DEB","OBJECT_ID":"1984-081G","EPOCH":"2026-03-04T19:36:39.370176","MEAN_MOTION":2.08087143,"ECCENTRICITY":0.7096595,"INCLINATION":6.1191,"RA_OF_ASC_NODE":29.7197,"ARG_OF_PERICENTER":305.3376,"MEAN_ANOMALY":7.5368,"EPHEMERIS_TYPE":0,"CLASSIFICATION_TYPE":"U","NORAD_CAT_ID":48347,"ELEMENT_SET_NO":999,"REV_AT_EPOCH":9347,"BSTAR":0,"MEAN_MOTION_DOT":-3.6e-7,"MEAN_MOTION_DDOT":0},{"OBJECT_NAME":"SBIRS GEO-5 (USA 315)","OBJECT_ID":"2021-042A","EPOCH":"2026-03-05T16:25:10.594560","MEAN_MOTION":1.00271458,"ECCENTRICITY":0.00014761,"INCLINATION":5.2353,"RA_OF_ASC_NODE":328.3469,"ARG_OF_PERICENTER":3.8708,"MEAN_ANOMALY":171.264,"EPHEMERIS_TYPE":0,"CLASSIFICATION_TYPE":"U","NORAD_CAT_ID":48618,"ELEMENT_SET_NO":999,"REV_AT_EPOCH":1773,"BSTAR":0,"MEAN_MOTION_DOT":-2.75e-6,"MEAN_MOTION_DDOT":0}]
