ATLAS 5 CENTAUR DEB     
1 47096U 14055DE  26055.57888081 -.00000016  00000+0  00000+0 0  9990
2 47096  19.2659 177.1970 4886288 106.0275 311.3048  1.79155303 35100
LUCAS (JDRS-1)          
1 47202U 20089A   26065.10039468 -.00000241  00000+0  00000+0 0  9990
2 47202   0.0572 275.2521 0002776  67.9962 307.4849  1.00272952 19380
SXM-7                   
1 47240U 20096A   26064.56639463 -.00000213  00000+0  00000+0 0  9999
2 47240   0.0216 119.6102 0004544   6.9880 155.4133  1.00273330  6407
BREEZE-M DEB [TANK]     
1 47243U 20097B   26063.35440872  .00001045  00000+0  12897-2 0  9996
2 47243  58.2684 129.9297 7303012 103.5330 340.3309  2.20436102 41899
CMS-01                  
1 47256U 20099A   26065.09883466 -.00000170  00000+0  00000+0 0  9994
2 47256   0.0222 125.8071 0006251 164.3363 352.2477  1.00272240 19161
TURKSAT 5A              
1 47306U 21001A   26064.87456933  .00000148  00000+0  00000+0 0  9998
2 47306   0.0201 104.1543 0000052 333.4625  71.7403  1.00272404 18939
FALCON 9 R/B            
1 47307U 21001B   26064.40959655  .00000314  00000+0  13055-2 0  9999
2 47307  15.9423 216.5762 7775444 339.5883   1.3127  1.65129047 28440
TIANTONG-1 3            
1 47321U 21003A   26065.10322527 -.00000160  00000+0  00000+0 0  9990
2 47321   1.8504 333.2079 0003426   7.5231 301.7240  1.00274276 18923
TJS-6                   
1 47613U 21010A   26065.27197603  .00000038  00000+0  00000+0 0  9998
2 47613   0.3348  90.7844 0003398 286.4507  63.1425  1.00271427 18776
ARKTIKA-M 1             
1 47719U 21016A   26061.82287547 -.00000108  00000+0  00000+0 0  9994
2 47719  63.2036  72.8571 7242814 269.4536  15.2019  2.00620868 36653
FREGAT R/B              
1 47720U 21016B   26060.90955432 -.00001502  00000+0  00000+0 0  9998
2 47720  63.2285  65.8235 7364666 267.1765  14.9941  1.98956105 36303
SHIYAN-9 (SY-9)         
1 47851U 21019A   26044.36779670 -.00000221  00000+0  00000+0 0  9993
2 47851  16.7978 304.0404 0016854  23.4452  94.4865  1.00262375 22897
SL-6 DEB                
1 48261U 80063E   26058.20421367  .00000159  00000+0  15341-2 0  9994
2 48261  63.9001   0.2858 7122643 284.4845  11.8012  2.11466866 94685
SL-6 DEB                
1 48262U 80063F   26064.85515074 -.00001250  00000+0  26648-2 0  9998
2 48262  63.5964  17.7172 7221491 280.8710 350.3619  2.05121657 92045
COSMOS 1367 DEB         
1 48266U 82045E   26064.86602911  .00000229  00000+0  14040-1 0  9998
2 48266  64.1215  65.1690 7205978  13.4108 358.4082  2.06307055 45499
ARIANE 3 DEB            
1 48347U 84081G   26063.81712234 -.00000036  00000+0  00000+0 0  9990
2 48347   6.1191  29.7197 7096595 305.3376   7.5368  2.08087143 93474
SBIRS GEO-5 (USA 315)   
1 48618U 21042A   26064.68415040 -.00000275  00000+0  00000+0 0  9995
2 48618   5.2353 328.3469 0001476   3.8708 171.2640  1.00271458 17733
